[{"OBJECT_NAME":"YAOGAN-35 02B","OBJECT_ID":"2022-068B","EPOCH":"2026-03-09T22:54:15.556608","MEAN_MOTION":15.47770078,"ECCENTRICITY":0.00054717,"INCLINATION":34.9994,"RA_OF_ASC_NODE":351.8421,"ARG_OF_PERICENTER":267.7559,"MEAN_ANOMALY":92.2537,"EPHEMERIS_TYPE":0,"CLASSIFICATION_TYPE":"U","NORAD_CAT_ID":52908,"ELEMENT_SET_NO":999,"REV_AT_EPOCH":20725,"BSTAR":0.001158139,"MEAN_MOTION_DOT":0.00062371,"MEAN_MOTION_DDOT":0},{"OBJECT_NAME":"FLOCK 4Q-36","OBJECT_ID":"2023-174U","EPOCH":"2026-03-09T19:16:39.542880","MEAN_MOTION":15.51175537,"ECCENTRICITY":0.00077513,"INCLINATION":97.3882,"RA_OF_ASC_NODE":158.0764,"ARG_OF_PERICENTER":145.8203,"MEAN_ANOMALY":214.355,"EPHEMERIS_TYPE":0,"CLASSIFICATION_TYPE":"U","NORAD_CAT_ID":58274,"ELEMENT_SET_NO":999,"REV_AT_EPOCH":13039,"BSTAR":0.00046936157,"MEAN_MOTION_DOT":0.00027409,"MEAN_MOTION_DDOT":0}]
